CCSDS_OMM_VERS = 2.0
CREATION_DATE  = 
ORIGINATOR     = 

OBJECT_NAME    = UNKNOWN
OBJECT_ID      = 
CENTER_NAME    = EARTH
REF_FRAME      = TEME
TIME_SYSTEM    = UTC
MEAN_ELEMENT_THEORY = SGP/SGP4

EPOCH          = 2025-11-08T14:29:32.571744
MEAN_MOTION    = 13.37980631
ECCENTRICITY   = .0206935
INCLINATION    = 67.1360
RA_OF_ASC_NODE = 251.7838
ARG_OF_PERICENTER = 58.4173
MEAN_ANOMALY   = 117.1683

EPHEMERIS_TYPE = 0
CLASSIFICATION_TYPE = U
NORAD_CAT_ID   = 81317
ELEMENT_SET_NO = 999
REV_AT_EPOCH   = 58406
BSTAR          = .60306E-3
MEAN_MOTION_DOT = .296E-5
MEAN_MOTION_DDOT = 0

CCSDS_OMM_VERS = 2.0
CREATION_DATE  = 
ORIGINATOR     = 

OBJECT_NAME    = UNKNOWN
OBJECT_ID      = 
CENTER_NAME    = EARTH
REF_FRAME      = TEME
TIME_SYSTEM    = UTC
MEAN_ELEMENT_THEORY = SGP/SGP4

EPOCH          = 2025-11-07T05:43:15.674304
MEAN_MOTION    = 14.45541421
ECCENTRICITY   = .0346637
INCLINATION    = 65.7490
RA_OF_ASC_NODE = 128.1282
ARG_OF_PERICENTER = 331.9182
MEAN_ANOMALY   = 26.3585

EPHEMERIS_TYPE = 0
CLASSIFICATION_TYPE = U
NORAD_CAT_ID   = 81323
ELEMENT_SET_NO = 999
REV_AT_EPOCH   = 10792
BSTAR          = .19264E-2
MEAN_MOTION_DOT = .14348E-3
MEAN_MOTION_DDOT = 0

CCSDS_OMM_VERS = 2.0
CREATION_DATE  = 
ORIGINATOR     = 

OBJECT_NAME    = UNKNOWN
OBJECT_ID      = 
CENTER_NAME    = EARTH
REF_FRAME      = TEME
TIME_SYSTEM    = UTC
MEAN_ELEMENT_THEORY = SGP/SGP4

EPOCH          = 2025-11-05T00:27:28.270080
MEAN_MOTION    = 13.21911717
ECCENTRICITY   = .0829556
INCLINATION    = 65.8247
RA_OF_ASC_NODE = 216.4266
ARG_OF_PERICENTER = 47.1982
MEAN_ANOMALY   = 319.5827

EPHEMERIS_TYPE = 0
CLASSIFICATION_TYPE = U
NORAD_CAT_ID   = 81329
ELEMENT_SET_NO = 999
REV_AT_EPOCH   = 57309
BSTAR          = .11086E-2
MEAN_MOTION_DOT = .2979E-4
MEAN_MOTION_DDOT = 0

CCSDS_OMM_VERS = 2.0
CREATION_DATE  = 
ORIGINATOR     = 

OBJECT_NAME    = UNKNOWN
OBJECT_ID      = 
CENTER_NAME    = EARTH
REF_FRAME      = TEME
TIME_SYSTEM    = UTC
MEAN_ELEMENT_THEORY = SGP/SGP4

EPOCH          = 2025-11-03T07:55:39.832896
MEAN_MOTION    = 12.96505407
ECCENTRICITY   = .035392
INCLINATION    = 99.4815
RA_OF_ASC_NODE = 255.3761
ARG_OF_PERICENTER = 243.4512
MEAN_ANOMALY   = 112.9910

EPHEMERIS_TYPE = 0
CLASSIFICATION_TYPE = U
NORAD_CAT_ID   = 81341
ELEMENT_SET_NO = 999
REV_AT_EPOCH   = 51831
BSTAR          = -.1273E-1
MEAN_MOTION_DOT = -.4894E-4
MEAN_MOTION_DDOT = 0

CCSDS_OMM_VERS = 2.0
CREATION_DATE  = 
ORIGINATOR     = 

OBJECT_NAME    = UNKNOWN
OBJECT_ID      = 
CENTER_NAME    = EARTH
REF_FRAME      = TEME
TIME_SYSTEM    = UTC
MEAN_ELEMENT_THEORY = SGP/SGP4

EPOCH          = 2025-11-05T00:49:47.012160
MEAN_MOTION    = 15.03119017
ECCENTRICITY   = .0011504
INCLINATION    = 85.8759
RA_OF_ASC_NODE = 219.4839
ARG_OF_PERICENTER = 47.7596
MEAN_ANOMALY   = 312.4611

EPHEMERIS_TYPE = 0
CLASSIFICATION_TYPE = U
NORAD_CAT_ID   = 81343
ELEMENT_SET_NO = 999
REV_AT_EPOCH   = 44865
BSTAR          = .5929E-3
MEAN_MOTION_DOT = .8042E-4
MEAN_MOTION_DDOT = 0

CCSDS_OMM_VERS = 2.0
CREATION_DATE  = 
ORIGINATOR     = 

OBJECT_NAME    = UNKNOWN
OBJECT_ID      = 
CENTER_NAME    = EARTH
REF_FRAME      = TEME
TIME_SYSTEM    = UTC
MEAN_ELEMENT_THEORY = SGP/SGP4

EPOCH          = 2025-11-06T22:03:11.441952
MEAN_MOTION    = 13.78755690
ECCENTRICITY   = .0113822
INCLINATION    = 66.7967
RA_OF_ASC_NODE = 137.7239
ARG_OF_PERICENTER = 347.9097
MEAN_ANOMALY   = 11.9247

EPHEMERIS_TYPE = 0
CLASSIFICATION_TYPE = U
NORAD_CAT_ID   = 81359
ELEMENT_SET_NO = 999
REV_AT_EPOCH   = 60054
BSTAR          = .84941E-3
MEAN_MOTION_DOT = .833E-5
MEAN_MOTION_DDOT = 0

CCSDS_OMM_VERS = 2.0
CREATION_DATE  = 
ORIGINATOR     = 

OBJECT_NAME    = UNKNOWN
OBJECT_ID      = 
CENTER_NAME    = EARTH
REF_FRAME      = TEME
TIME_SYSTEM    = UTC
MEAN_ELEMENT_THEORY = SGP/SGP4

EPOCH          = 2025-11-06T06:45:41.094432
MEAN_MOTION    = 13.45018916
ECCENTRICITY   = .0710214
INCLINATION    = 65.8817
RA_OF_ASC_NODE = 158.2640
ARG_OF_PERICENTER = 99.4853
MEAN_ANOMALY   = 268.7133

EPHEMERIS_TYPE = 0
CLASSIFICATION_TYPE = U
NORAD_CAT_ID   = 81366
ELEMENT_SET_NO = 999
REV_AT_EPOCH   = 6105
BSTAR          = .63348E-3
MEAN_MOTION_DOT = .1703E-4
MEAN_MOTION_DDOT = 0

CCSDS_OMM_VERS = 2.0
CREATION_DATE  = 
ORIGINATOR     = 

OBJECT_NAME    = UNKNOWN
OBJECT_ID      = 
CENTER_NAME    = EARTH
REF_FRAME      = TEME
TIME_SYSTEM    = UTC
MEAN_ELEMENT_THEORY = SGP/SGP4

EPOCH          = 2025-11-07T12:26:34.143072
MEAN_MOTION    = 14.69878264
ECCENTRICITY   = .0071821
INCLINATION    = 98.8163
RA_OF_ASC_NODE = 45.1257
ARG_OF_PERICENTER = 114.2123
MEAN_ANOMALY   = 246.6608

EPHEMERIS_TYPE = 0
CLASSIFICATION_TYPE = U
NORAD_CAT_ID   = 81371
ELEMENT_SET_NO = 999
REV_AT_EPOCH   = 63666
BSTAR          = .11207E-2
MEAN_MOTION_DOT = .6919E-4
MEAN_MOTION_DDOT = 0

CCSDS_OMM_VERS = 2.0
CREATION_DATE  = 
ORIGINATOR     = 

OBJECT_NAME    = UNKNOWN
OBJECT_ID      = 
CENTER_NAME    = EARTH
REF_FRAME      = TEME
TIME_SYSTEM    = UTC
MEAN_ELEMENT_THEORY = SGP/SGP4

EPOCH          = 2025-11-07T14:15:34.400160
MEAN_MOTION    = 14.35641951
ECCENTRICITY   = .0088192
INCLINATION    = 71.0484
RA_OF_ASC_NODE = 72.7564
ARG_OF_PERICENTER = 142.5374
MEAN_ANOMALY   = 218.1952

EPHEMERIS_TYPE = 0
CLASSIFICATION_TYPE = U
NORAD_CAT_ID   = 81386
ELEMENT_SET_NO = 999
REV_AT_EPOCH   = 61919
BSTAR          = .43714E-2
MEAN_MOTION_DOT = .13164E-3
MEAN_MOTION_DDOT = 0

CCSDS_OMM_VERS = 2.0
CREATION_DATE  = 
ORIGINATOR     = 

OBJECT_NAME    = UNKNOWN
OBJECT_ID      = 
CENTER_NAME    = EARTH
REF_FRAME      = TEME
TIME_SYSTEM    = UTC
MEAN_ELEMENT_THEORY = SGP/SGP4

EPOCH          = 2025-11-07T22:09:56.432448
MEAN_MOTION    = 12.35658152
ECCENTRICITY   = .0168005
INCLINATION    = 103.1052
RA_OF_ASC_NODE = 198.3265
ARG_OF_PERICENTER = 207.8959
MEAN_ANOMALY   = 151.3011

EPHEMERIS_TYPE = 0
CLASSIFICATION_TYPE = U
NORAD_CAT_ID   = 81390
ELEMENT_SET_NO = 999
REV_AT_EPOCH   = 49579
BSTAR          = -.36784E-2
MEAN_MOTION_DOT = -.538E-5
MEAN_MOTION_DDOT = 0

CCSDS_OMM_VERS = 2.0
CREATION_DATE  = 
ORIGINATOR     = 

OBJECT_NAME    = UNKNOWN
OBJECT_ID      = 
CENTER_NAME    = EARTH
REF_FRAME      = TEME
TIME_SYSTEM    = UTC
MEAN_ELEMENT_THEORY = SGP/SGP4

EPOCH          = 2025-11-08T05:11:22.532928
MEAN_MOTION    = 13.81350875
ECCENTRICITY   = .0036902
INCLINATION    = 100.3959
RA_OF_ASC_NODE = 296.9734
ARG_OF_PERICENTER = 117.5132
MEAN_ANOMALY   = 263.0620

EPHEMERIS_TYPE = 0
CLASSIFICATION_TYPE = U
NORAD_CAT_ID   = 81392
ELEMENT_SET_NO = 999
REV_AT_EPOCH   = 59741
BSTAR          = .39273E-2
MEAN_MOTION_DOT = .4145E-4
MEAN_MOTION_DDOT = 0

CCSDS_OMM_VERS = 2.0
CREATION_DATE  = 
ORIGINATOR     = 

OBJECT_NAME    = UNKNOWN
OBJECT_ID      = 
CENTER_NAME    = EARTH
REF_FRAME      = TEME
TIME_SYSTEM    = UTC
MEAN_ELEMENT_THEORY = SGP/SGP4

EPOCH          = 2025-11-02T08:27:48.111552
MEAN_MOTION    = 13.88686156
ECCENTRICITY   = .0158545
INCLINATION    = 99.4680
RA_OF_ASC_NODE = 353.8711
ARG_OF_PERICENTER = 331.9698
MEAN_ANOMALY   = 27.2987

EPHEMERIS_TYPE = 0
CLASSIFICATION_TYPE = U
NORAD_CAT_ID   = 81405
ELEMENT_SET_NO = 999
REV_AT_EPOCH   = 55619
BSTAR          = .1262E-2
MEAN_MOTION_DOT = .1634E-4
MEAN_MOTION_DDOT = 0

