UNKNOWN                 
1 81317U          25312.60384921  .00000296  00000+0  60306-3 0  9990
2 81317  67.1360 251.7838 0206935  58.4173 117.1683 13.37980631584063
UNKNOWN                 
1 81323U          25311.23837586  .00014348  00000+0  19264-2 0  9994
2 81323  65.7490 128.1282 0346637 331.9182  26.3585 14.45541421107929
UNKNOWN                 
1 81329U          25309.01907720  .00002979  00000+0  11086-2 0  9992
2 81329  65.8247 216.4266 0829556  47.1982 319.5827 13.21911717573092
UNKNOWN                 
1 81341U          25307.33032214 -.00004894  00000+0 -12730-1 0  9992
2 81341  99.4815 255.3761 0353920 243.4512 112.9910 12.96505407518317
UNKNOWN                 
1 81343U          25309.03457190  .00008042  00000+0  59290-3 0  9998
2 81343  85.8759 219.4839 0011504  47.7596 312.4611 15.03119017448651
UNKNOWN                 
1 81359U          25310.91888243  .00000833  00000+0  84941-3 0  9992
2 81359  66.7967 137.7239 0113822 347.9097  11.9247 13.78755690600547
UNKNOWN                 
1 81366U          25310.28172563  .00001703  00000+0  63348-3 0  9996
2 81366  65.8817 158.2640 0710214  99.4853 268.7133 13.45018916 61050
UNKNOWN                 
1 81371U          25311.51845073  .00006919  00000+0  11207-2 0  9992
2 81371  98.8163  45.1257 0071821 114.2123 246.6608 14.69878264636668
UNKNOWN                 
1 81386U          25311.59414815  .00013164  00000+0  43714-2 0  9990
2 81386  71.0484  72.7564 0088192 142.5374 218.1952 14.35641951619190
UNKNOWN                 
1 81390U          25311.92356982 -.00000538  00000+0 -36784-2 0  9994
2 81390 103.1052 198.3265 0168005 207.8959 151.3011 12.35658152495793
UNKNOWN                 
1 81392U          25312.21623302  .00004145  00000+0  39273-2 0  9994
2 81392 100.3959 296.9734 0036902 117.5132 263.0620 13.81350875597418
UNKNOWN                 
1 81405U          25306.35264018  .00001634  00000+0  12620-2 0  9999
2 81405  99.4680 353.8711 0158545 331.9698  27.2987 13.88686156556194
